EQUISAT                 
1 43552U 98067PA  20324.94695344  .00132349  17623-4  41253-3 0  9997
2 43552  51.6259 202.9288 0002386 195.0902 165.0033 15.91332970134797
AEROCUBE 12A            
1 43556U 18046C   20324.62646039  .00002159  00000-0  84556-4 0  9998
2 43556  51.6407  79.7011 0008608 129.5512 230.6230 15.30386481131134
AEROCUBE 12B            
1 43557U 18046D   20325.37216783  .00002437  00000-0  94871-4 0  9991
2 43557  51.6423  77.1607 0008564 131.4281 228.7437 15.30030123131183
UITMSAT-1               
1 43589U 98067PD  20325.00934518  .09147399  12394-4  58853-3 0  9998
2 43589  51.6128 191.6935 0007320 255.9940 104.0273 16.40872661130679
MAYA-1                  
1 43590U 98067PE  20324.88139739  .05711489  12232-4  70418-3 0  9992
2 43590  51.6106 192.2490 0007498 248.1886 111.8341 16.35304962130589
BHUTAN-1                
1 43591U 98067PF  20323.57107911  .11695971  12499-4  37838-3 0  9993
2 43591  51.6155 198.6835 0005882 255.3071 104.7305 16.44501217130390
SIRIUSSAT-1             
1 43595U 98067PG  20325.52429272  .00253118  36969-4  56251-3 0  9990
2 43595  51.6231 200.4994 0004014 183.5576 176.5290 15.97420334129727
SIRIUSSAT-2             
1 43596U 98067PH  20325.53252676  .00256634  37684-4  57179-3 0  9995
2 43596  51.6193 201.3562 0002252 186.3388 173.7393 15.97381605129719
SURFSAT                 
1 43614U 18070B   20325.14127883  .00004135  00000-0  10299-3 0  9997
2 43614  93.0286 219.0816 0017824  93.9346 266.3947 15.40125433122438
CP7 (DAVE)              
1 43615U 18070C   20325.25456776  .00004322  00000-0  10831-3 0  9996
2 43615  93.0290 219.1083 0017993  93.3775 266.9538 15.39928822122442
ELFIN-B                 
1 43616U 18070D   20325.14054427  .00005566  00000-0  13138-3 0  9996
2 43616  93.0247 219.0660 0018246  93.8100 266.5242 15.41722461122491
ELFIN-A                 
1 43617U 18070E   20325.15118250  .00006765  00000-0  15823-3 0  9998
2 43617  93.0302 219.7174 0017704  90.9393 269.3891 15.41997353122508
CUBEBEL-1 (BSUSAT-1)    
1 43666U 18083E   20325.42477110  .00001361  00000-0  68968-4 0  9995
2 43666  97.4769 350.2781 0015003 171.1726 295.8539 15.18587716114285
CICERO 10               
1 43690U 18088A   20324.75873229  .00001400  00000-0  61976-4 0  9999
2 43690  85.0358 335.9756 0017191  99.1225 261.1962 15.20524891112354
IRVINE01                
1 43693U 18088D   20324.72968035  .00003662  00000-0  15033-3 0  9993
2 43693  85.0331 334.1780 0019910  81.0608 279.2888 15.23658487112485
PROXIMA I               
1 43694U 18088E   20325.09865700  .00001451  00000-0  60919-4 0  9998
2 43694  85.0299 333.8902 0021364  73.2127 287.1457 15.22268814112510
PROXIMA II              
1 43696U 18088G   20325.29396941  .00001617  00000-0  68111-4 0  9994
2 43696  85.0300 333.7664 0021394  72.4906 287.8672 15.22270316112547
FACSAT-1                
1 43721U 18096C   20325.46641411  .00002513  00000-0  95258-4 0  9994
2 43721  97.4077  38.1177 0015763 293.6259 123.5692 15.27728249110207
CENTAURI-2              
1 43722U 18096D   20324.76641236  .00003071  00000-0  11340-3 0  9991
2 43722  97.4089  37.8671 0015775 295.0480  64.9121 15.28416764110113
INNOSAT-2               
1 43738U 18096V   20325.44545315  .00004388  00000-0  14699-3 0  9997
2 43738  97.4122  41.1982 0021325 297.0456 118.9103 15.31264699110396
SIRION PATHFINDER-2     
1 43759U 18099B   20325.16083261  .00001069  00000-0  10187-3 0  9990
2 43759  97.6906  34.0384 0014762  29.9356 330.2713 14.95360129107202
CORVUS-BC 4             
1 43767U 18099K   20325.15991962  .00000317  00000-0  34293-4 0  9994
2 43767  97.6890  33.2776 0012100  36.4245 323.7884 14.94796812107165
MOVE-II                 
1 43780U 18099Y   20324.88944140  .00000949  00000-0  90583-4 0  9999
2 43780  97.6922  33.7645 0014336  41.0343 319.1954 14.95572779107140
SPACEBEE-7              
1 43816U 18099BL  20324.73267292  .00000649  00000-0  63196-4 0  9996
2 43816  97.6932  34.0949 0013686  25.9618 334.2287 14.95832702106708
SPACEBEE-5              
1 43817U 18099BM  20325.14905519  .00001971  00000-0  17770-3 0  9999
2 43817  97.7000  35.2298 0013189  25.2594 334.9270 14.96640087106792
SPACEBEE-6              
1 43818U 18099BN  20325.14202367  .00001194  00000-0  11121-3 0  9992
2 43818  97.6952  34.7211 0013524  24.8078 335.3790 14.96081996106927
SHIELDS 1               
1 43850U 18104B   20324.75047244  .00000891  00000-0  37707-4 0  9994
2 43850  85.0305  72.6663 0013575 212.2643 147.7770 15.21543278107081
STF-1                   
1 43852U 18104D   20324.76565900  .00002014  00000-0  87263-4 0  9992
2 43852  85.0345  73.2864 0012869 228.4380 131.5759 15.21642343107068
ZACUBE-2                
1 43907U 18111AH  20325.54321968  .00000906  00000-0  39180-4 0  9995
2 43907  97.2498 220.4618 0020284 316.3361 164.4288 15.24783572105795
LUME 1                  
1 43908U 18111AJ  20324.67063721  .00001836  00000-0  75129-4 0  9995
2 43908  97.2503 219.9113 0019924 318.3904  41.5817 15.25404666105686
AOBA VELOX-IV           
1 43940U 19003J   20324.86050310  .00002649  00000-0  10609-3 0  9997
2 43940  97.2089  10.6914 0024318  36.9060 323.3846 15.25634190102334
CATSAT-2                
1 44029U 98067PV  20324.80933544  .00045037  00000-0  32571-3 0  9996
2 44029  51.6371 245.2036 0000678   7.1994 352.9015 15.73007065102908
DELPHINI                
1 44030U 98067PW  20324.87521933  .00053632  00000-0  35097-3 0  9996
2 44030  51.6311 241.6780 0000783  86.7987 273.3102 15.75256398102924
UNITE                   
1 44031U 98067PX  20325.33031196  .00023743  00000-0  24004-3 0  9992
2 44031  51.6369 254.6632 0001073 336.3087  23.7859 15.65184230102791
CATSAT-1                
1 44033U 98067PZ  20324.80932841  .00058003  00000-0  41755-3 0  9991
2 44033  51.6370 245.2147 0001070 353.6899   6.4085 15.73007839102812
RAAVANA-1               
1 44329U 98067QE  20325.22701228  .00026143  00000-0  29807-3 0  9993
2 44329  51.6383 271.3134 0004036 207.1065 152.9719 15.62042724 81315
UGUISU                  
1 44330U 98067QF  20324.35424853  .00023136  00000-0  26641-3 0  9996
2 44330  51.6361 275.9427 0004034 203.5747 156.5062 15.61862984 81153
NEPALISAT-1             
1 44331U 98067QG  20324.57831007  .00021198  00000-0  24322-3 0  9994
2 44331  51.6362 274.4409 0004026 207.9488 152.1291 15.62015559 81201
SPOOQY-1                
1 44332U 98067QH  20324.59502922  .00019699  00000-0  22838-3 0  9991
2 44332  51.6371 274.5647 0003146 208.1738 151.9086 15.61800840 81168
SPACEBEE-9              
1 44370U 19037F   20325.07165489  .00018173  00000-0  36257-3 0  9996
2 44370  45.0056 324.0189 0012751  27.0377 333.1176 15.46571395 78666
SPACEBEE-8              
1 44371U 19037G   20325.16271457  .00046987  00000-0  69273-3 0  9998
2 44371  45.0054 310.3463 0011240  51.6882 308.5020 15.54645439 78815
IOD-1 GEMS              
1 44385U 98067QK  20325.12110321  .00050789  00000-0  45471-3 0  9990
2 44385  51.6372 266.1437 0003521 138.5019 221.6245 15.67816986 78832
MOVE-IIB                
1 44398U 19038N   20325.48642690  .00002393  00000-0  13942-3 0  9999
2 44398  97.5555 284.9271 0023909 313.7588  46.1662 15.12758573 76166
SONATE                  
1 44400U 19038Q   20325.50233409  .00000782  00000-0  48952-4 0  9990
2 44400  97.5603 284.9374 0023982 312.1283  47.7909 15.12144256 76151
LUCKY-7                 
1 44406U 19038W   20324.89369636  .00001198  00000-0  72358-4 0  9998
2 44406  97.5609 284.4934 0023366 313.4698  46.4588 15.12448590 76067
BEESAT 9                
1 44412U 19038AC  20325.14569948  .00001532  00000-0  91120-4 0  9992
2 44412  97.5598 284.7293 0021539 318.8500  41.1106 15.12604659 75802
JAISAT-1                
1 44419U 19038F   20325.11623178  .00001584  00000-0  92888-4 0  9991
2 44419  97.5601 285.0832 0020314 317.9228  42.0442 15.13089101 76134
SWIATOWID               
1 44426U 98067QL  20325.45795318  .00060982  00000-0  49288-3 0  9993
2 44426  51.6379 262.1184 0004026 137.7833 329.6189 15.70227505 78930
KRAKSAT                 
1 44427U 98067QM  20325.18126968  .00015158  00000-0  19810-3 0  9996
2 44427  51.6417 277.5472 0003303 149.7784 336.5790 15.58860919 78741
VCC A                   
1 44428U 98067QN  20325.22752030  .00025297  00000-0  29855-3 0  9992
2 44428  51.6387 273.6188 0002429 155.0405 205.0707 15.61169721 78809
ENTRYSAT                
1 44429U 98067QP  20324.16653621  .00029298  00000-0  31980-3 0  9998
2 44429  51.6366 276.2280 0002647 138.1334 221.9864 15.63104636 78676
VCC C                   
1 44430U 98067QQ  20324.16474535  .00041160  00000-0  40158-3 0  9994
2 44430  51.6365 273.2179 0002425 133.7870 226.3327 15.65779367 77539
VCC B                   
1 44431U 98067QR  20325.15655922  .00022787  00000-0  26848-3 0  9990
2 44431  51.6370 273.8579 0002555 155.6659 204.4456 15.61279160 78733
DUCHIFAT-3              
1 44854U 19089C   20325.21857108  .00000611  00000-0  55569-4 0  9998
2 44854  36.9669 257.7355 0009235 247.9620 112.0146 14.99202282 51683
EYESAT-NANO             
1 44877U 19092E   20324.74840539  .00001834  00000-0  95573-4 0  9991
2 44877  97.4556 145.5392 0013121 193.4673 166.6212 15.17176149 51134
ORBITAL FACTORY 2 (OF-2)
1 45113U 19071C   20324.50455994  .00004146  00000-0  13492-3 0  9991
2 45113  51.6433 334.2138 0012080 256.2246 103.7392 15.34074291 44920
M2 PATHFINDER           
1 45727U 20037E   20324.74334336  .00000028  00000-0  82914-5 0  9990
2 45727  97.7015 141.2598 0013502 139.7236 220.4939 14.91258933 21162
NETSAT-4                
1 46504U 20068U   20324.78177209  .00000504  00000-0  43230-4 0  9992
2 46504  97.6655 257.6591 0011886  82.2586 278.0005 15.01840612  7769
NETSAT-3                
1 46505U 20068V   20324.91633661  .00000320  00000-0  29107-4 0  9990
2 46505  97.6621 257.7847 0011832  84.4523 275.8050 15.01800158  7793
